[ {"OBJECT_NAME": "COSMOS 1461", "OBJECT_ID": "1983-044A", "EPOCH": "2026-03-10T05:42:55.985472", "MEAN_MOTION": 15.35051235, "ECCENTRICITY": 0.00529343, "INCLINATION": 64.9901, "RA_OF_ASC_NODE": 18.4808, "ARG_OF_PERICENTER": 227.9095, "MEAN_ANOMALY": 131.7534, "EPHEMERIS_TYPE": 0, "CLASSIFICATION_TYPE": "U", "NORAD_CAT_ID": 14064, "ELEMENT_SET_NO": 999, "REV_AT_EPOCH": 20193, "BSTAR": 0.00080304049, "MEAN_MOTION_DOT": 0.00028617, "MEAN_MOTION_DDOT": 0}, {"OBJECT_NAME": "SL-8 DEB", "OBJECT_ID": "1981-041D", "EPOCH": "2026-03-10T07:49:00.077376", "MEAN_MOTION": 15.02974346, "ECCENTRICITY": 0.00072464, "INCLINATION": 74.0313, "RA_OF_ASC_NODE": 14.9502, "ARG_OF_PERICENTER": 177.81, "MEAN_ANOMALY": 338.0413, "EPHEMERIS_TYPE": 0, "CLASSIFICATION_TYPE": "U", "NORAD_CAT_ID": 14346, "ELEMENT_SET_NO": 999, "REV_AT_EPOCH": 27985, "BSTAR": 0.0012490898, "MEAN_MOTION_DOT": 0.00016809, "MEAN_MOTION_DDOT": 0}, {"OBJECT_NAME": "COSMOS 886 DEB", "OBJECT_ID": "1976-126BP", "EPOCH": "2026-03-10T06:37:33.502944", "MEAN_MOTION": 13.48230456, "ECCENTRICITY": 0.07108674, "INCLINATION": 65.7797, "RA_OF_ASC_NODE": 47.1575, "ARG_OF_PERICENTER": 87.6114, "MEAN_ANOMALY": 23.7045, "EPHEMERIS_TYPE": 0, "CLASSIFICATION_TYPE": "U", "NORAD_CAT_ID": 14502, "ELEMENT_SET_NO": 999, "REV_AT_EPOCH": 14473, "BSTAR": 0.0010543585, "MEAN_MOTION_DOT": 3.166e-05, "MEAN_MOTION_DDOT": 0}, {"OBJECT_NAME": "OPS 8737", "OBJECT_ID": "1984-012A", "EPOCH": "2026-03-10T03:23:47.594112", "MEAN_MOTION": 14.13414003, "ECCENTRICITY": 0.06370698, "INCLINATION": 63.298, "RA_OF_ASC_NODE": 72.1833, "ARG_OF_PERICENTER": 123.2019, "MEAN_ANOMALY": 243.1796, "EPHEMERIS_TYPE": 0, "CLASSIFICATION_TYPE": "U", "NORAD_CAT_ID": 14690, "ELEMENT_SET_NO": 999, "REV_AT_EPOCH": 9395, "BSTAR": 0.00052958962, "MEAN_MOTION_DOT": 7.741e-05, "MEAN_MOTION_DDOT": 0}, {"OBJECT_NAME": "USA 3", "OBJECT_ID": "1984-065C", "EPOCH": "2026-03-10T06:18:24.211008", "MEAN_MOTION": 15.13182903, "ECCENTRICITY": 0.00034368, "INCLINATION": 95.8958, "RA_OF_ASC_NODE": 320.7893, "ARG_OF_PERICENTER": 353.9317, "MEAN_ANOMALY": 6.1876, "EPHEMERIS_TYPE": 0, "CLASSIFICATION_TYPE": "U", "NORAD_CAT_ID": 15071, "ELEMENT_SET_NO": 999, "REV_AT_EPOCH": 10015, "BSTAR": 0.00039131826, "MEAN_MOTION_DOT": 6.902e-05, "MEAN_MOTION_DDOT": 0}, {"OBJECT_NAME": "COSMOS 1707", "OBJECT_ID": "1985-113A", "EPOCH": "2026-03-10T00:49:41.189664", "MEAN_MOTION": 15.66915216, "ECCENTRICITY": 0.00026823, "INCLINATION": 82.4857, "RA_OF_ASC_NODE": 273.3833, "ARG_OF_PERICENTER": 322.2879, "MEAN_ANOMALY": 37.8192, "EPHEMERIS_TYPE": 0, "CLASSIFICATION_TYPE": "U", "NORAD_CAT_ID": 16326, "ELEMENT_SET_NO": 999, "REV_AT_EPOCH": 20187, "BSTAR": 0.00049858607, "MEAN_MOTION_DOT": 0.00053026, "MEAN_MOTION_DDOT": 0}, {"OBJECT_NAME": "COSMOS 1758", "OBJECT_ID": "1986-046A", "EPOCH": "2026-03-10T06:15:45.983232", "MEAN_MOTION": 15.25712093, "ECCENTRICITY": 0.00131272, "INCLINATION": 82.4608, "RA_OF_ASC_NODE": 142.9898, "ARG_OF_PERICENTER": 336.1634, "MEAN_ANOMALY": 23.8994, "EPHEMERIS_TYPE": 0, "CLASSIFICATION_TYPE": "U", "NORAD_CAT_ID": 16791, "ELEMENT_SET_NO": 999, "REV_AT_EPOCH": 16615, "BSTAR": 0.00027399433, "MEAN_MOTION_DOT": 7.031e-05, "MEAN_MOTION_DDOT": 0}, {"OBJECT_NAME": "SL-14 DEB", "OBJECT_ID": "1978-100J", "EPOCH": "2026-03-10T05:10:53.734944", "MEAN_MOTION": 12.94567719, "ECCENTRICITY": 0.03894399, "INCLINATION": 82.4093, "RA_OF_ASC_NODE": 238.3024, "ARG_OF_PERICENTER": 341.5556, "MEAN_ANOMALY": 205.374, "EPHEMERIS_TYPE": 0, "CLASSIFICATION_TYPE": "U", "NORAD_CAT_ID": 19136, "ELEMENT_SET_NO": 999, "REV_AT_EPOCH": 19566, "BSTAR": 0.0014427468, "MEAN_MOTION_DOT": 5.76e-06, "MEAN_MOTION_DDOT": 0}, {"OBJECT_NAME": "OKEAN-1", "OBJECT_ID": "1988-056A", "EPOCH": "2026-03-10T00:27:13.309920", "MEAN_MOTION": 15.31675605, "ECCENTRICITY": 0.00129732, "INCLINATION": 82.4671, "RA_OF_ASC_NODE": 262.6259, "ARG_OF_PERICENTER": 167.6291, "MEAN_ANOMALY": 192.5271, "EPHEMERIS_TYPE": 0, "CLASSIFICATION_TYPE": "U", "NORAD_CAT_ID": 19274, "ELEMENT_SET_NO": 999, "REV_AT_EPOCH": 3513, "BSTAR": 0.00038487524, "MEAN_MOTION_DOT": 0.00011835, "MEAN_MOTION_DDOT": 0}, {"OBJECT_NAME": "DELTA 1 DEB", "OBJECT_ID": "1977-065GB", "EPOCH": "2026-03-10T00:24:49.937760", "MEAN_MOTION": 14.47214452, "ECCENTRICITY": 0.03689007, "INCLINATION": 29.1064, "RA_OF_ASC_NODE": 346.4738, "ARG_OF_PERICENTER": 316.6377, "MEAN_ANOMALY": 40.5734, "EPHEMERIS_TYPE": 0, "CLASSIFICATION_TYPE": "U", "NORAD_CAT_ID": 19429, "ELEMENT_SET_NO": 999, "REV_AT_EPOCH": 87230, "BSTAR": 0.001187032, "MEAN_MOTION_DOT": 0.00010727, "MEAN_MOTION_DDOT": 0}, {"OBJECT_NAME": "COSMOS 375 DEB", "OBJECT_ID": "1970-091AY", "EPOCH": "2026-03-08T21:41:29.932224", "MEAN_MOTION": 13.16054593, "ECCENTRICITY": 0.0827045, "INCLINATION": 62.9186, "RA_OF_ASC_NODE": 273.547, "ARG_OF_PERICENTER": 210.169, "MEAN_ANOMALY": 144.9148, "EPHEMERIS_TYPE": 0, "CLASSIFICATION_TYPE": "U", "NORAD_CAT_ID": 19960, "ELEMENT_SET_NO": 999, "REV_AT_EPOCH": 77978, "BSTAR": -2.2117917e-05, "MEAN_MOTION_DOT": -1.6e-06, "MEAN_MOTION_DDOT": 0}, {"OBJECT_NAME": "OKEAN-2", "OBJECT_ID": "1990-018A", "EPOCH": "2026-03-10T04:59:16.783296", "MEAN_MOTION": 15.15652462, "ECCENTRICITY": 0.00049578, "INCLINATION": 82.5016, "RA_OF_ASC_NODE": 331.347, "ARG_OF_PERICENTER": 302.5624, "MEAN_ANOMALY": 212.3915, "EPHEMERIS_TYPE": 0, "CLASSIFICATION_TYPE": "U", "NORAD_CAT_ID": 20510, "ELEMENT_SET_NO": 999, "REV_AT_EPOCH": 93906, "BSTAR": 0.00029985094, "MEAN_MOTION_DOT": 5.731e-05, "MEAN_MOTION_DDOT": 0}, {"OBJECT_NAME": "ATLAS 28E DEB", "OBJECT_ID": "1990-031H", "EPOCH": "2026-03-09T23:56:54.228768", "MEAN_MOTION": 15.28900088, "ECCENTRICITY": 0.00279069, "INCLINATION": 89.4106, "RA_OF_ASC_NODE": 276.7074, "ARG_OF_PERICENTER": 212.3273, "MEAN_ANOMALY": 147.6268, "EPHEMERIS_TYPE": 0, "CLASSIFICATION_TYPE": "U", "NORAD_CAT_ID": 20576, "ELEMENT_SET_NO": 999, "REV_AT_EPOCH": 37212, "BSTAR": 0.00057040893, "MEAN_MOTION_DOT": 0.00016229, "MEAN_MOTION_DDOT": 0}, {"OBJECT_NAME": "MACSAT 2 (M 2)", "OBJECT_ID": "1990-043B", "EPOCH": "2026-03-09T23:13:24.151296", "MEAN_MOTION": 14.8050252, "ECCENTRICITY": 0.0082305, "INCLINATION": 89.7422, "RA_OF_ASC_NODE": 248.3117, "ARG_OF_PERICENTER": 163.6376, "MEAN_ANOMALY": 196.7535, "EPHEMERIS_TYPE": 0, "CLASSIFICATION_TYPE": "U", "NORAD_CAT_ID": 20608, "ELEMENT_SET_NO": 999, "REV_AT_EPOCH": 92371, "BSTAR": 0.00022905, "MEAN_MOTION_DOT": 1.876e-05, "MEAN_MOTION_DDOT": 0}, {"OBJECT_NAME": "SL-16 DEB", "OBJECT_ID": "1992-093Q", "EPOCH": "2026-03-10T04:56:38.082912", "MEAN_MOTION": 15.00193313, "ECCENTRICITY": 0.00549443, "INCLINATION": 71.1128, "RA_OF_ASC_NODE": 225.6404, "ARG_OF_PERICENTER": 133.1615, "MEAN_ANOMALY": 353.1844, "EPHEMERIS_TYPE": 0, "CLASSIFICATION_TYPE": "U", "NORAD_CAT_ID": 22327, "ELEMENT_SET_NO": 999, "REV_AT_EPOCH": 74848, "BSTAR": 0.0012574637, "MEAN_MOTION_DOT": 0.00016203, "MEAN_MOTION_DDOT": 0}, {"OBJECT_NAME": "HELIOS 1A", "OBJECT_ID": "1995-033A", "EPOCH": "2026-03-10T05:42:10.755072", "MEAN_MOTION": 15.05213672, "ECCENTRICITY": 0.0012488, "INCLINATION": 98.2085, "RA_OF_ASC_NODE": 313.3472, "ARG_OF_PERICENTER": 9.0841, "MEAN_ANOMALY": 351.0607, "EPHEMERIS_TYPE": 0, "CLASSIFICATION_TYPE": "U", "NORAD_CAT_ID": 23605, "ELEMENT_SET_NO": 999, "REV_AT_EPOCH": 65327, "BSTAR": 0.00027107785, "MEAN_MOTION_DOT": 3.805e-05, "MEAN_MOTION_DDOT": 0}, {"OBJECT_NAME": "CERISE", "OBJECT_ID": "1995-033B", "EPOCH": "2026-03-10T07:01:42.784320", "MEAN_MOTION": 15.32062687, "ECCENTRICITY": 0.0005693, "INCLINATION": 98.325, "RA_OF_ASC_NODE": 273.8863, "ARG_OF_PERICENTER": 210.5354, "MEAN_ANOMALY": 149.5554, "EPHEMERIS_TYPE": 0, "CLASSIFICATION_TYPE": "U", "NORAD_CAT_ID": 23606, "ELEMENT_SET_NO": 999, "REV_AT_EPOCH": 66473, "BSTAR": 0.00071141388, "MEAN_MOTION_DOT": 0.00021982, "MEAN_MOTION_DDOT": 0}, {"OBJECT_NAME": "SICH-1", "OBJECT_ID": "1995-046A", "EPOCH": "2026-03-10T05:23:59.523072", "MEAN_MOTION": 14.9436868, "ECCENTRICITY": 0.00171552, "INCLINATION": 82.5242, "RA_OF_ASC_NODE": 136.2969, "ARG_OF_PERICENTER": 297.616, "MEAN_ANOMALY": 62.3318, "EPHEMERIS_TYPE": 0, "CLASSIFICATION_TYPE": "U", "NORAD_CAT_ID": 23657, "ELEMENT_SET_NO": 999, "REV_AT_EPOCH": 65120, "BSTAR": 0.00018368626, "MEAN_MOTION_DOT": 2.006e-05, "MEAN_MOTION_DDOT": 0}, {"OBJECT_NAME": "PEGASUS DEB", "OBJECT_ID": "1994-029BC", "EPOCH": "2026-03-10T07:51:11.903904", "MEAN_MOTION": 15.02673652, "ECCENTRICITY": 0.00619877, "INCLINATION": 81.9229, "RA_OF_ASC_NODE": 9.6768, "ARG_OF_PERICENTER": 201.4179, "MEAN_ANOMALY": 282.6754, "EPHEMERIS_TYPE": 0, "CLASSIFICATION_TYPE": "U", "NORAD_CAT_ID": 24007, "ELEMENT_SET_NO": 999, "REV_AT_EPOCH": 61004, "BSTAR": 0.0003514129, "MEAN_MOTION_DOT": 4.913e-05, "MEAN_MOTION_DDOT": 0}, {"OBJECT_NAME": "PEGASUS DEB", "OBJECT_ID": "1994-029ED", "EPOCH": "2026-03-10T01:42:44.123328", "MEAN_MOTION": 15.15584803, "ECCENTRICITY": 0.00435937, "INCLINATION": 81.9086, "RA_OF_ASC_NODE": 82.8252, "ARG_OF_PERICENTER": 180.3403, "MEAN_ANOMALY": 179.7806, "EPHEMERIS_TYPE": 0, "CLASSIFICATION_TYPE": "U", "NORAD_CAT_ID": 24082, "ELEMENT_SET_NO": 999, "REV_AT_EPOCH": 60532, "BSTAR": 0.00057321533, "MEAN_MOTION_DOT": 0.00011177, "MEAN_MOTION_DDOT": 0}, {"OBJECT_NAME": "IRIDIUM 5", "OBJECT_ID": "1997-020D", "EPOCH": "2026-03-10T05:17:51.465120", "MEAN_MOTION": 14.97640172, "ECCENTRICITY": 0.00996156, "INCLINATION": 86.3892, "RA_OF_ASC_NODE": 320.7626, "ARG_OF_PERICENTER": 261.1849, "MEAN_ANOMALY": 97.8092, "EPHEMERIS_TYPE": 0, "CLASSIFICATION_TYPE": "U", "NORAD_CAT_ID": 24795, "ELEMENT_SET_NO": 999, "REV_AT_EPOCH": 52523, "BSTAR": 0.00038623613, "MEAN_MOTION_DOT": 5.034e-05, "MEAN_MOTION_DDOT": 0}, {"OBJECT_NAME": "IRS-1D", "OBJECT_ID": "1997-057A", "EPOCH": "2026-03-10T05:21:32.929056", "MEAN_MOTION": 14.35470363, "ECCENTRICITY": 0.00524868, "INCLINATION": 98.8398, "RA_OF_ASC_NODE": 61.1723, "ARG_OF_PERICENTER": 158.2141, "MEAN_ANOMALY": 202.1292, "EPHEMERIS_TYPE": 0, "CLASSIFICATION_TYPE": "U", "NORAD_CAT_ID": 24971, "ELEMENT_SET_NO": 999, "REV_AT_EPOCH": 48841, "BSTAR": 0.00010145631, "MEAN_MOTION_DOT": 2.5e-06, "MEAN_MOTION_DDOT": 0}]